ONEWEB-0387             
1 49313U 21090AL  22269.00001157 -.00016681  00000+0 -41130-1 0  9990
2 49313  87.9260 185.0788 0001811  82.6209 233.7784 13.20777425  1305
ONEWEB-0388             
1 49314U 21090AM  22269.00001157 -.00045918  00000+0 -11527+0 0  9991
2 49314  87.9235 215.2777 0001937  82.8940 148.1300 13.19747806  1306
ONEWEB-0389             
1 50469U 21132A   22269.00001157  .00020413  00000+0  52428-1 0  9999
2 50469  87.9004 276.1385 0002239 110.0782 121.8124 13.17644305  1308
ONEWEB-0390             
1 50470U 21132B   22269.00001157  .00020363  00000+0  52302-1 0  9996
2 50470  87.9005 276.1388 0002016 109.3541 114.9318 13.17641955  1307
ONEWEB-0391             
1 50471U 21132C   22269.00001157  .00020251  00000+0  52016-1 0  9995
2 50471  87.9005 276.1105 0002122 104.0601 112.9279 13.17639310  1308
ONEWEB-0392             
1 50472U 21132D   22269.00001157  .00018409  00000+0  47285-1 0  9990
2 50472  87.9020 276.1399 0001780 100.2286 270.7750 13.17647854  1306
ONEWEB-0393             
1 50473U 21132E   22269.00001157  .00019023  00000+0  48863-1 0  9997
2 50473  87.9009 276.1351 0001563  99.5392 238.7180 13.17644265  1303
ONEWEB-0394             
1 50474U 21132F   22269.00001157 -.00010062  00000+0 -97726-3 0  9998
2 50474  87.2191 259.8673 0004952  86.1414  92.4374 14.92852710  1306
ONEWEB-0395             
1 50475U 21132G   22269.00001157  .00038087  00000+0  10701+0 0  9998
2 50475  87.8791 291.4544 0001813 105.1683 142.5396 13.11402188  1302
ONEWEB-0396             
1 50476U 21132H   22269.00001157 -.00011676  00000+0 -11342-2 0  9991
2 50476  87.2226 259.9753 0002466  81.3826 219.7430 14.92849307  1304
ONEWEB-0397             
1 50477U 21132J   22269.00001157 -.00008941  00000+0 -86917-3 0  9994
2 50477  87.2234 260.0072 0005812  63.5695  66.6858 14.92823481  1303
ONEWEB-0398             
1 50478U 21132K   22269.00001157  .00038391  00000+0  10787+0 0  9993
2 50478  87.8781 291.4413 0001693 115.1871 286.1046 13.11396159  1302
ONEWEB-0399             
1 50479U 21132L   22269.00001157  .00040452  00000+0  11363+0 0  9996
2 50479  87.8789 291.4549 0002226  84.3636  20.4196 13.11399941  1307
ONEWEB-0400             
1 50480U 21132M   22269.00001157 -.00008952  00000+0 -86935-3 0  9990
2 50480  87.2183 259.8016 0003485  64.3264  13.6358 14.92872183  1309
ONEWEB-0401             
1 50481U 21132N   22269.00001157 -.00011452  00000+0 -11130-2 0  9994
2 50481  87.2206 259.9037 0004600  86.5379 191.3739 14.92823663  1309
ONEWEB-0402             
1 50482U 21132P   22269.00001157 -.00008545  00000+0 -82968-3 0  9992
2 50482  87.2212 259.9167 0004615  80.1149   1.1084 14.92879747  1307
ONEWEB-0403             
1 50483U 21132Q   22269.00001157 -.00009367  00000+0 -91049-3 0  9996
2 50483  87.2183 259.8300 0004145  97.7800  33.2590 14.92828789  1307
ONEWEB-0404             
1 50484U 21132R   22269.00001157  .00038792  00000+0  10898+0 0  9998
2 50484  87.8791 291.4168 0002660 104.6400 121.9483 13.11404070  1306
ONEWEB-0405             
1 50485U 21132S   22269.00001157 -.00003407  00000+0 -33237-3 0  9992
2 50485  87.2955 262.1781 0001884  44.1628  15.7497 14.92865729  1303
ONEWEB-0406             
1 50486U 21132T   22269.00001157 -.00011644  00000+0 -11305-2 0  9996
2 50486  87.2231 259.9801 0004226  33.0164 273.9673 14.92866221  1305
ONEWEB-0407             
1 50487U 21132U   22269.00001157 -.00010549  00000+0 -10248-2 0  9995
2 50487  87.2146 259.7016 0002934  28.5016 186.8171 14.92847849  1306
ONEWEB-0409             
1 50488U 21132V   22269.00001157  .00039709  00000+0  11155+0 0  9998
2 50488  87.8711 291.4175 0002281 108.1409  92.0665 13.11401599  1300
ONEWEB-0412             
1 50489U 21132W   22269.00001157 -.00008734  00000+0 -84784-3 0  9997
2 50489  87.2196 259.8717 0003668  65.4757  26.4096 14.92887914  1301
ONEWEB-0413             
1 50490U 21132X   22269.00001157 -.00010335  00000+0 -10038-2 0  9999
2 50490  87.2134 259.6459 0004826  83.8659  92.0759 14.92852636  1306
ONEWEB-0414             
1 50491U 21132Y   22269.00001157  .00023023  00000+0  22170-2 0  9996
2 50491  87.2176 259.8066 0003427  34.5301 172.2713 14.92847699  1306
ONEWEB-0417             
1 50492U 21132Z   22269.00001157 -.00010892  00000+0 -10581-2 0  9992
2 50492  87.2208 259.9169 0003832  25.4794 229.8841 14.92845876  1309
ONEWEB-0418             
1 50493U 21132AA  22269.00001157 -.00009560  00000+0 -92853-3 0  9996
2 50493  87.2243 260.0435 0005025  67.4204 110.1291 14.92854000  1306
ONEWEB-0419             
1 50494U 21132AB  22269.00001157 -.00011574  00000+0 -11236-2 0  9990
2 50494  87.2130 259.6324 0002904  32.2201 331.8926 14.92870906  1303
ONEWEB-0420             
1 50495U 21132AC  22269.00001157 -.00014194  00000+0 -13785-2 0  9993
2 50495  87.2074 259.4333 0005192  81.8724 282.9201 14.92845952  1306
ONEWEB-0421             
1 50496U 21132AD  22269.00001157 -.00011418  00000+0 -11103-2 0  9992
2 50496  87.2104 259.5450 0005169  95.6559 148.9670 14.92799193  1301
ONEWEB-0424             
1 50497U 21132AE  22269.00001157 -.00009676  00000+0 -93967-3 0  9995
2 50497  87.2274 260.1322 0004201  61.3449 144.4396 14.92864200  1308
ONEWEB-0426             
1 50498U 21132AF  22269.00001157 -.00009522  00000+0 -92548-3 0  9990
2 50498  87.2147 259.7032 0002525  81.8203  49.8812 14.92835911  1300
ONEWEB-0427             
1 50499U 21132AG  22269.00001157 -.00011029  00000+0 -10699-2 0  9992
2 50499  87.2085 259.4710 0001546  72.2179 322.4045 14.92906763  1302
ONEWEB-0429             
1 50500U 21132AH  22269.00001157 -.00009839  00000+0 -95615-3 0  9993
2 50500  87.2117 259.5828 0004786  80.7442  54.4260 14.92831406  1300
ONEWEB-0430             
1 50501U 21132AJ  22269.00001157 -.00008407  00000+0 -81641-3 0  9998
2 50501  87.2253 260.0653 0003473  44.2573  25.3109 14.92876540  1304
ONEWEB-0432             
1 50502U 21132AK  22269.00001157 -.00011902  00000+0 -11551-2 0  9995
2 50502  87.2104 259.5401 0006034  82.5622 279.3444 14.92873790  1307
ONEWEB-0440             
1 50503U 21132AL  22269.00001157 -.00009122  00000+0 -88541-3 0  9991
2 50503  87.2140 259.6534 0004499  81.6903   5.6811 14.92888685  1308
ONEWEB-0450             
1 50504U 21132AM  22269.00001157 -.00011061  00000+0 -10749-2 0  9991
2 50504  87.2230 259.9899 0003818  61.6795 205.0239 14.92831547  1302
ONEWEB-0410             
1 51622U 22012A   22269.00001157 -.00024886  00000+0 -23368-2 0  9991
2 51622  87.1796 280.3042 0003905  72.9400 325.1057 14.94212776  1304
ONEWEB-0411             
1 51623U 22012B   22269.00001157  .00046942  00000+0  13379+0 0  9995
2 51623  87.8759 306.7285 0002075 114.5464 196.1379 13.10355998  1307
ONEWEB-0415             
1 51624U 22012C   22269.00001157  .00046378  00000+0  13219+0 0  9992
2 51624  87.8749 306.7170 0001491 112.3793 212.9561 13.10356269  1304
ONEWEB-0416             
1 51625U 22012D   22269.00001157  .00048504  00000+0  13823+0 0  9997
2 51625  87.8734 306.7032 0001739  92.7358 181.0604 13.10351308  1302
ONEWEB-0422             
1 51626U 22012E   22269.00001157  .00037869  00000+0  35212-2 0  9999
2 51626  87.2353 281.8000 0002267 145.5141 118.7739 14.94171870  1309
ONEWEB-0423             
1 51627U 22012F   22269.00001157  .00032157  00000+0  29977-2 0  9996
2 51627  87.1808 280.3456 0002333  82.5971 302.0504 14.94098123  1305
ONEWEB-0425             
1 51628U 22012G   22269.00001157  .00049859  00000+0  14208+0 0  9992
2 51628  87.8720 306.7097 0002481  90.5457 139.2297 13.10347473  1303
ONEWEB-0428             
1 51629U 22012H   22269.00001157  .00046639  00000+0  13293+0 0  9999
2 51629  87.8730 306.7051 0001609  75.2814 242.6387 13.10357084  1301
ONEWEB-0431             
1 51630U 22012J   22269.00001157  .00049803  00000+0  14193+0 0  9997
2 51630  87.8764 306.6767 0000947 108.4076  77.3157 13.10343305  1305
ONEWEB-0434             
1 51631U 22012K   22269.00001157  .00049989  00000+0  14247+0 0  9993
2 51631  87.8682 306.6946 0001492  82.1009 132.8583 13.10337650  1300
ONEWEB-0435             
1 51632U 22012L   22269.00001157  .00049458  00000+0  14096+0 0  9997
2 51632  87.8777 306.6529 0001443  70.8570 100.1649 13.10339617  1302
ONEWEB-0436             
1 51633U 22012M   22269.00001157  .00037594  00000+0  34961-2 0  9992
2 51633  87.1766 280.2376 0004514  83.3424  88.8520 14.94162335  1304
ONEWEB-0438             
1 51634U 22012N   22269.00001157  .00049311  00000+0  14053+0 0  9990
2 51634  87.8787 306.6521 0002163  93.9019 157.8765 13.10346043  1300
ONEWEB-0439             
1 51635U 22012P   22269.00001157  .00049705  00000+0  14165+0 0  9992
2 51635  87.8763 306.6872 0001793  95.5806 141.5215 13.10344561  1307
ONEWEB-0442             
1 51636U 22012Q   22269.00001157  .00036415  00000+0  33874-2 0  9998
2 51636  87.1745 280.1722 0001389 114.2600 117.3595 14.94163240  1301
ONEWEB-0443             
1 51637U 22012R   22269.00001157  .00037599  00000+0  34970-2 0  9991
2 51637  87.1767 280.2398 0003852  50.9318 116.8038 14.94159142  1307
ONEWEB-0444             
1 51638U 22012S   22269.00001157  .00048198  00000+0  13735+0 0  9992
2 51638  87.8703 306.6936 0001812  87.9275 193.2307 13.10357550  1300
ONEWEB-0445             
1 51639U 22012T   22269.00001157  .00049660  00000+0  14152+0 0  9992
2 51639  87.8761 306.6978 0002142 115.3856  63.0854 13.10344881  1303
ONEWEB-0446             
1 51640U 22012U   22269.00001157  .00047879  00000+0  13645+0 0  9990
2 51640  87.8749 306.7095 0001681 105.3377 183.1874 13.10355664  1303
ONEWEB-0448             
1 51641U 22012V   22269.00001157  .00048790  00000+0  13906+0 0  9994
2 51641  87.8742 306.7065 0001699  88.2668 178.3702 13.10341510  1306
ONEWEB-0449             
1 51642U 22012W   22269.00001157  .00049543  00000+0  14118+0 0  9998
2 51642  87.8682 306.6965 0002356  99.1171 145.4051 13.10349071  1301
